1 48234U 21031AA  25312.51988030  .00000185  00000+0  46467-3 0  9998
2 48234  87.9001 333.6535 0001822  98.6063 261.5273 13.14502267219279